QZS-1R                  
1 49336U 21096A   23342.63660588 -.00000217  00000+0  00000+0 0  9998
2 49336  35.5525  93.4597 0753206 270.9889  76.1719  1.00260322  7762
